[{"OBJECT_NAME":"JILIN-1 GAOFEN 3D06","OBJECT_ID":"2022-046D","EPOCH":"2026-03-09T20:32:42.708768","MEAN_MOTION":15.77506946,"ECCENTRICITY":0.00026293,"INCLINATION":97.4988,"RA_OF_ASC_NODE":185.9829,"ARG_OF_PERICENTER":243.9141,"MEAN_ANOMALY":116.1854,"EPHEMERIS_TYPE":0,"CLASSIFICATION_TYPE":"U","NORAD_CAT_ID":52391,"ELEMENT_SET_NO":999,"REV_AT_EPOCH":21494,"BSTAR":0.0011303209,"MEAN_MOTION_DOT":0.00190664,"MEAN_MOTION_DDOT":0},{"OBJECT_NAME":"STARLINK-36575","OBJECT_ID":"2026-016J","EPOCH":"2026-03-09T17:28:59.894400","MEAN_MOTION":15.75207615,"ECCENTRICITY":0.00018468,"INCLINATION":97.284,"RA_OF_ASC_NODE":129.2838,"ARG_OF_PERICENTER":50.1576,"MEAN_ANOMALY":309.9852,"EPHEMERIS_TYPE":0,"CLASSIFICATION_TYPE":"U","NORAD_CAT_ID":67569,"ELEMENT_SET_NO":999,"REV_AT_EPOCH":681,"BSTAR":0.0016342806,"MEAN_MOTION_DOT":0.00251133,"MEAN_MOTION_DDOT":0}]
