JILIN-1 GAOFEN 3D06     
1 52391U 22046D   26068.85604986  .00190664  00000+0  11303-2 0  9997
2 52391  97.4988 185.9829 0002629 243.9141 116.1854 15.77506946214948
STARLINK-36575          
1 67569U 26016J   26068.72847100  .00251133  00000+0  16343-2 0  9992
2 67569  97.2840 129.2838 0001847  50.1576 309.9852 15.75207615  6812
